(Helix demo - flange, 6-bolt circle)
G21 G90 G17
G0 Z5
G0 X60 Y0
M3 S8000
F1200

(outer contour, two passes)
G1 Z-2
G2 X60 Y0 I-60 J0
G1 Z-4
G2 X60 Y0 I-60 J0
G0 Z5

(bolt circle, 6 holes R40, helical plunge)
G0 X44 Y0
G1 Z0 F600
G2 X44 Y0 I-4 J0 Z-3
G2 X44 Y0 I-4 J0
G0 Z5

G0 X22 Y38.105
G1 Z0
G2 X22 Y38.105 I-4 J0 Z-3
G2 X22 Y38.105 I-4 J0
G0 Z5

G0 X-22 Y38.105
G1 Z0
G2 X-22 Y38.105 I-4 J0 Z-3
G2 X-22 Y38.105 I-4 J0
G0 Z5

G0 X-44 Y0
G1 Z0
G2 X-44 Y0 I-4 J0 Z-3
G2 X-44 Y0 I-4 J0
G0 Z5

G0 X-22 Y-38.105
G1 Z0
G2 X-22 Y-38.105 I-4 J0 Z-3
G2 X-22 Y-38.105 I-4 J0
G0 Z5

G0 X22 Y-38.105
G1 Z0
G2 X22 Y-38.105 I-4 J0 Z-3
G2 X22 Y-38.105 I-4 J0
G0 Z5

(center bore R15)
G0 X15 Y0
G1 Z0 F500
G2 X15 Y0 I-15 J0 Z-2
G2 X15 Y0 I-15 J0 Z-4
G2 X15 Y0 I-15 J0
G0 Z10
M5
G0 X0 Y0
M2
